[Satellite]
VERSION=1.1
NAME=CALSPHERE 2
NICKNAME=CALSPHERE 2
TLE1=1 00902U 64063E   17186.08590692  .00000021  00000-0  18594-4 0  9996
TLE2=2 00902  90.1456  14.0648 0018227   3.3318 119.0260 13.52649320414305
